CCSDS_OMM_VERS = 2.0
CREATION_DATE  = 
ORIGINATOR     = 

OBJECT_NAME    = IDEFIX & ARIANE 42P R/B
OBJECT_ID      = 2002-021B
CENTER_NAME    = EARTH
REF_FRAME      = TEME
TIME_SYSTEM    = UTC
MEAN_ELEMENT_THEORY = SGP/SGP4

EPOCH          = 2026-01-24T09:01:16.439808
MEAN_MOTION    = 14.30989770
ECCENTRICITY   = .001121
INCLINATION    = 98.5829
RA_OF_ASC_NODE = 323.5244
ARG_OF_PERICENTER = 323.0644
MEAN_ANOMALY   = 36.9766

EPHEMERIS_TYPE = 0
CLASSIFICATION_TYPE = U
NORAD_CAT_ID   = 27422
ELEMENT_SET_NO = 999
REV_AT_EPOCH   = 23768
BSTAR          = .25869E-3
MEAN_MOTION_DOT = .637E-5
MEAN_MOTION_DDOT = 0

CCSDS_OMM_VERS = 2.0
CREATION_DATE  = 
ORIGINATOR     = 

OBJECT_NAME    = AQUA
OBJECT_ID      = 2002-022A
CENTER_NAME    = EARTH
REF_FRAME      = TEME
TIME_SYSTEM    = UTC
MEAN_ELEMENT_THEORY = SGP/SGP4

EPOCH          = 2026-01-24T12:56:26.568096
MEAN_MOTION    = 14.61855303
ECCENTRICITY   = .0001915
INCLINATION    = 98.4098
RA_OF_ASC_NODE = 351.1277
ARG_OF_PERICENTER = 66.8561
MEAN_ANOMALY   = 358.4840

EPHEMERIS_TYPE = 0
CLASSIFICATION_TYPE = U
NORAD_CAT_ID   = 27424
ELEMENT_SET_NO = 999
REV_AT_EPOCH   = 26228
BSTAR          = .40397E-3
MEAN_MOTION_DOT = .197E-4
MEAN_MOTION_DDOT = 0

CCSDS_OMM_VERS = 2.0
CREATION_DATE  = 
ORIGINATOR     = 

OBJECT_NAME    = CZ-4B R/B
OBJECT_ID      = 2002-024C
CENTER_NAME    = EARTH
REF_FRAME      = TEME
TIME_SYSTEM    = UTC
MEAN_ELEMENT_THEORY = SGP/SGP4

EPOCH          = 2026-01-24T10:19:12.598752
MEAN_MOTION    = 14.14538768
ECCENTRICITY   = .0050749
INCLINATION    = 98.8933
RA_OF_ASC_NODE = 78.0394
ARG_OF_PERICENTER = 147.8409
MEAN_ANOMALY   = 223.7903

EPHEMERIS_TYPE = 0
CLASSIFICATION_TYPE = U
NORAD_CAT_ID   = 27432
ELEMENT_SET_NO = 999
REV_AT_EPOCH   = 22298
BSTAR          = .82503E-4
MEAN_MOTION_DOT = .116E-5
MEAN_MOTION_DDOT = 0

CCSDS_OMM_VERS = 2.0
CREATION_DATE  = 
ORIGINATOR     = 

OBJECT_NAME    = MIDORI II (ADEOS-II)
OBJECT_ID      = 2002-056A
CENTER_NAME    = EARTH
REF_FRAME      = TEME
TIME_SYSTEM    = UTC
MEAN_ELEMENT_THEORY = SGP/SGP4

EPOCH          = 2026-01-24T10:04:59.764224
MEAN_MOTION    = 14.29246517
ECCENTRICITY   = .0001971
INCLINATION    = 98.7697
RA_OF_ASC_NODE = 342.6145
ARG_OF_PERICENTER = 104.9189
MEAN_ANOMALY   = 255.2210

EPHEMERIS_TYPE = 0
CLASSIFICATION_TYPE = U
NORAD_CAT_ID   = 27597
ELEMENT_SET_NO = 999
REV_AT_EPOCH   = 20397
BSTAR          = .27906E-3
MEAN_MOTION_DOT = .664E-5
MEAN_MOTION_DDOT = 0

CCSDS_OMM_VERS = 2.0
CREATION_DATE  = 
ORIGINATOR     = 

OBJECT_NAME    = H-2A R/B
OBJECT_ID      = 2002-056E
CENTER_NAME    = EARTH
REF_FRAME      = TEME
TIME_SYSTEM    = UTC
MEAN_ELEMENT_THEORY = SGP/SGP4

EPOCH          = 2026-01-24T11:18:41.025024
MEAN_MOTION    = 14.33723309
ECCENTRICITY   = .0069163
INCLINATION    = 98.3126
RA_OF_ASC_NODE = 346.5424
ARG_OF_PERICENTER = 293.9150
MEAN_ANOMALY   = 175.7162

EPHEMERIS_TYPE = 0
CLASSIFICATION_TYPE = U
NORAD_CAT_ID   = 27601
ELEMENT_SET_NO = 999
REV_AT_EPOCH   = 20777
BSTAR          = .25404E-3
MEAN_MOTION_DOT = .682E-5
MEAN_MOTION_DDOT = 0

CCSDS_OMM_VERS = 2.0
CREATION_DATE  = 
ORIGINATOR     = 

OBJECT_NAME    = CZ-4B R/B
OBJECT_ID      = 2003-049C
CENTER_NAME    = EARTH
REF_FRAME      = TEME
TIME_SYSTEM    = UTC
MEAN_ELEMENT_THEORY = SGP/SGP4

EPOCH          = 2026-01-24T10:34:04.594080
MEAN_MOTION    = 14.54963861
ECCENTRICITY   = .0048417
INCLINATION    = 98.6829
RA_OF_ASC_NODE = 17.6275
ARG_OF_PERICENTER = 8.1585
MEAN_ANOMALY   = 352.0387

EPHEMERIS_TYPE = 0
CLASSIFICATION_TYPE = U
NORAD_CAT_ID   = 28059
ELEMENT_SET_NO = 999
REV_AT_EPOCH   = 18016
BSTAR          = .21842E-3
MEAN_MOTION_DOT = .903E-5
MEAN_MOTION_DDOT = 0

CCSDS_OMM_VERS = 2.0
CREATION_DATE  = 
ORIGINATOR     = 

OBJECT_NAME    = CZ-2C R/B
OBJECT_ID      = 2004-012C
CENTER_NAME    = EARTH
REF_FRAME      = TEME
TIME_SYSTEM    = UTC
MEAN_ELEMENT_THEORY = SGP/SGP4

EPOCH          = 2026-01-24T03:31:54.538464
MEAN_MOTION    = 15.59420196
ECCENTRICITY   = .00170098
INCLINATION    = 97.7334
RA_OF_ASC_NODE = 85.3745
ARG_OF_PERICENTER = 114.0735
MEAN_ANOMALY   = 246.2303

EPHEMERIS_TYPE = 0
CLASSIFICATION_TYPE = U
NORAD_CAT_ID   = 28222
ELEMENT_SET_NO = 999
REV_AT_EPOCH   = 19732
BSTAR          = .85837703E-3
MEAN_MOTION_DOT = .6863E-3
MEAN_MOTION_DDOT = 0

CCSDS_OMM_VERS = 2.0
CREATION_DATE  = 
ORIGINATOR     = 

OBJECT_NAME    = SL-16 R/B
OBJECT_ID      = 2004-021B
CENTER_NAME    = EARTH
REF_FRAME      = TEME
TIME_SYSTEM    = UTC
MEAN_ELEMENT_THEORY = SGP/SGP4

EPOCH          = 2026-01-24T06:16:38.500608
MEAN_MOTION    = 14.14592074
ECCENTRICITY   = .0002649
INCLINATION    = 71.0026
RA_OF_ASC_NODE = 325.7297
ARG_OF_PERICENTER = 122.3541
MEAN_ANOMALY   = 237.7838

EPHEMERIS_TYPE = 0
CLASSIFICATION_TYPE = U
NORAD_CAT_ID   = 28353
ELEMENT_SET_NO = 999
REV_AT_EPOCH   = 11655
BSTAR          = -.51209E-4
MEAN_MOTION_DOT = -.146E-5
MEAN_MOTION_DDOT = 0

CCSDS_OMM_VERS = 2.0
CREATION_DATE  = 
ORIGINATOR     = 

OBJECT_NAME    = CZ-4B R/B
OBJECT_ID      = 2004-035C
CENTER_NAME    = EARTH
REF_FRAME      = TEME
TIME_SYSTEM    = UTC
MEAN_ELEMENT_THEORY = SGP/SGP4

EPOCH          = 2026-01-24T00:05:26.377728
MEAN_MOTION    = 15.28192064
ECCENTRICITY   = .00341143
INCLINATION    = 97.3564
RA_OF_ASC_NODE = 58.7960
ARG_OF_PERICENTER = 125.5200
MEAN_ANOMALY   = 234.9230

EPHEMERIS_TYPE = 0
CLASSIFICATION_TYPE = U
NORAD_CAT_ID   = 28415
ELEMENT_SET_NO = 999
REV_AT_EPOCH   = 17308
BSTAR          = .4413487E-3
MEAN_MOTION_DOT = .12269E-3
MEAN_MOTION_DDOT = 0

CCSDS_OMM_VERS = 2.0
CREATION_DATE  = 
ORIGINATOR     = 

OBJECT_NAME    = CZ-2C R/B
OBJECT_ID      = 2004-046B
CENTER_NAME    = EARTH
REF_FRAME      = TEME
TIME_SYSTEM    = UTC
MEAN_ELEMENT_THEORY = SGP/SGP4

EPOCH          = 2026-01-24T09:08:18.110688
MEAN_MOTION    = 14.26972484
ECCENTRICITY   = .0138285
INCLINATION    = 98.2000
RA_OF_ASC_NODE = 302.1144
ARG_OF_PERICENTER = 286.1226
MEAN_ANOMALY   = 72.4771

EPHEMERIS_TYPE = 0
CLASSIFICATION_TYPE = U
NORAD_CAT_ID   = 28480
ELEMENT_SET_NO = 999
REV_AT_EPOCH   = 10218
BSTAR          = .15137E-3
MEAN_MOTION_DOT = .365E-5
MEAN_MOTION_DDOT = 0

CCSDS_OMM_VERS = 2.0
CREATION_DATE  = 
ORIGINATOR     = 

OBJECT_NAME    = ARIANE 5 R/B
OBJECT_ID      = 2004-049H
CENTER_NAME    = EARTH
REF_FRAME      = TEME
TIME_SYSTEM    = UTC
MEAN_ELEMENT_THEORY = SGP/SGP4

EPOCH          = 2026-01-24T10:29:54.484224
MEAN_MOTION    = 14.85156635
ECCENTRICITY   = .0085227
INCLINATION    = 98.2556
RA_OF_ASC_NODE = 191.2608
ARG_OF_PERICENTER = 133.9590
MEAN_ANOMALY   = 226.8695

EPHEMERIS_TYPE = 0
CLASSIFICATION_TYPE = U
NORAD_CAT_ID   = 28499
ELEMENT_SET_NO = 999
REV_AT_EPOCH   = 13922
BSTAR          = .21051E-3
MEAN_MOTION_DOT = .186E-4
MEAN_MOTION_DDOT = 0

CCSDS_OMM_VERS = 2.0
CREATION_DATE  = 
ORIGINATOR     = 

OBJECT_NAME    = CZ-2D R/B
OBJECT_ID      = 2005-024B
CENTER_NAME    = EARTH
REF_FRAME      = TEME
TIME_SYSTEM    = UTC
MEAN_ELEMENT_THEORY = SGP/SGP4

EPOCH          = 2026-01-24T12:36:49.899456
MEAN_MOTION    = 15.56259593
ECCENTRICITY   = .0005612
INCLINATION    = 97.3629
RA_OF_ASC_NODE = 38.1838
ARG_OF_PERICENTER = 157.2288
MEAN_ANOMALY   = 202.9216

EPHEMERIS_TYPE = 0
CLASSIFICATION_TYPE = U
NORAD_CAT_ID   = 28738
ELEMENT_SET_NO = 999
REV_AT_EPOCH   = 13290
BSTAR          = .70523E-3
MEAN_MOTION_DOT = .49674E-3
MEAN_MOTION_DDOT = 0

