IDEFIX & ARIANE 42P R/B 
1 27422U 02021B   26024.37588472  .00000637  00000+0  25869-3 0  9998
2 27422  98.5829 323.5244 0011210 323.0644  36.9766 14.30989770237681
AQUA                    
1 27424U 02022A   26024.53919639  .00001970  00000+0  40397-3 0  9996
2 27424  98.4098 351.1277 0001915  66.8561 358.4840 14.61855303262281
CZ-4B R/B               
1 27432U 02024C   26024.43000693  .00000116  00000+0  82503-4 0  9994
2 27432  98.8933  78.0394 0050749 147.8409 223.7903 14.14538768222985
MIDORI II (ADEOS-II)    
1 27597U 02056A   26024.42013616  .00000664  00000+0  27906-3 0  9992
2 27597  98.7697 342.6145 0001971 104.9189 255.2210 14.29246517203972
H-2A R/B                
1 27601U 02056E   26024.47130816  .00000682  00000+0  25404-3 0  9996
2 27601  98.3126 346.5424 0069163 293.9150 175.7162 14.33723309207776
CZ-4B R/B               
1 28059U 03049C   26024.44033095  .00000903  00000+0  21842-3 0  9993
2 28059  98.6829  17.6275 0048417   8.1585 352.0387 14.54963861180168
CZ-2C R/B               
1 28222U 04012C   26024.14715901  .00068630  00000+0  85838-3 0  9992
2 28222  97.7334  85.3745 0017009 114.0735 246.2303 15.59420196197325
SL-16 R/B               
1 28353U 04021B   26024.26155672 -.00000146  00000+0 -51209-4 0  9999
2 28353  71.0026 325.7297 0002649 122.3541 237.7838 14.14592074116556
CZ-4B R/B               
1 28415U 04035C   26024.00377752  .00012269  00000+0  44135-3 0  9996
2 28415  97.3564  58.7960 0034114 125.5200 234.9230 15.28192064173089
CZ-2C R/B               
1 28480U 04046B   26024.38076517  .00000365  00000+0  15137-3 0  9990
2 28480  98.2000 302.1144 0138285 286.1226  72.4771 14.26972484102189
ARIANE 5 R/B            
1 28499U 04049H   26024.43743616  .00001860  00000+0  21051-3 0  9993
2 28499  98.2556 191.2608 0085227 133.9590 226.8695 14.85156635139229
CZ-2D R/B               
1 28738U 05024B   26024.52557754  .00049674  00000+0  70523-3 0  9992
2 28738  97.3629  38.1838 0005612 157.2288 202.9216 15.56259593132901
